     2.100          NAVIGATION                              RINEX VERSION / TYPE
fic2rin                                 01/10/2009 01:14:07 PGM / RUN BY / DATE
                                                            END OF HEADER
31 09  1  9 18  0  0.0 -.470355153084D-04 -.159161572810D-11  .000000000000D+00
     .750000000000D+02 -.168968750000D+03  .419624621907D-08  .293174072265D+01
    -.857561826706D-05  .711486674845D-02  .327266752720D-05  .515362598038D+04
     .496800000000D+06  .100582838058D-06 -.103556308270D+01  .651925802231D-07
     .970860847840D+00  .320500000000D+03 -.121180023269D+01 -.807962226298D-08
    -.264653881039D-09  .100000000000D+01  .151300000000D+04  .000000000000D+00
     .340000000000D+01  .000000000000D+00 -.130385160446D-07  .750000000000D+02
     .489606000000D+06  .400000000000D+01
32 09  1  9 18  0  0.0  .304664950818D-03 -.261479726760D-11  .000000000000D+00
     .660000000000D+02  .182843750000D+03  .387730436243D-08 -.249534162273D+01
     .934116542339D-05  .136831813725D-01  .106319785118D-04  .515367378235D+04
     .496800000000D+06  .856816768646D-07 -.304250552260D+01  .137835741043D-06
     .966371178587D+00  .172156250000D+03 -.121539412209D+01 -.744638160025D-08
    -.119647840956D-09  .100000000000D+01  .151300000000D+04  .000000000000D+00
     .240000000000D+01  .000000000000D+00 -.325962901115D-08  .660000000000D+02
     .489606000000D+06  .400000000000D+01
 4 09  1  9 17 59 44.0 -.293967779726D-03 -.133013600134D-10  .000000000000D+00
     .000000000000D+00 -.144375000000D+02  .524914721948D-08  .137152853063D+01
    -.445172190666D-06  .862460979261D-02  .826269388199D-05  .515364851952D+04
     .496784000000D+06 -.987201929092D-07  .211559286095D+01  .800937414169D-07
     .940915668160D+00  .212500000000D+03  .463345745193D+00 -.822677124947D-08
    -.820391315448D-09  .100000000000D+01  .151300000000D+04  .000000000000D+00
     .240000000000D+01  .000000000000D+00 -.605359673500D-08  .000000000000D+00
     .495726000000D+06  .400000000000D+01
 4 09  1  9 19 59 44.0 -.294063705951D-03 -.133013600134D-10  .000000000000D+00
     .100000000000D+01 -.131250000000D+02  .525986195151D-08  .242174589779D+01
    -.769272446632D-06  .862477335613D-02  .832974910736D-05  .515364818382D+04
     .503984000000D+06 -.176951289177D-06  .211553335090D+01 -.115483999252D-06
     .940910629870D+00  .210812500000D+03  .463330422589D+00 -.807140763510D-08
    -.721815780810D-09  .100000000000D+01  .151300000000D+04  .000000000000D+00
     .240000000000D+01  .000000000000D+00 -.605359673500D-08  .100000000000D+01
     .496806000000D+06  .400000000000D+01
 2 09  1  9 20  0  0.0  .162450596690D-03 -.193267624127D-11  .000000000000D+00
     .320000000000D+02 -.162187500000D+02  .531522140031D-08 -.417126898027D+00
    -.834465026855D-06  .890575477388D-02  .781752169132D-05  .515359021950D+04
     .504000000000D+06  .428408384323D-07  .209698024785D+01 -.182539224625D-06
     .941650508003D+00  .221562500000D+03  .269758704089D+01 -.828391648694D-08
    -.656813073187D-09  .100000000000D+01  .151300000000D+04  .000000000000D+00
     .240000000000D+01  .000000000000D+00 -.172294676304D-07  .320000000000D+02
     .496806000000D+06  .400000000000D+01
 3 09  1  9 20  0  0.0  .336608383805D-03  .522959453519D-11  .000000000000D+00
     .740000000000D+02  .172812500000D+02  .578274087437D-08 -.764455412922D+00
     .107288360596D-05  .115806342801D-01  .653974711895D-05  .515371510696D+04
     .504000000000D+06  .614672899246D-07  .950353116536D+00  .245869159698D-06
     .925951365020D+00  .235125000000D+03  .887199403873D+00 -.859821529304D-08
     .526450500205D-09  .100000000000D+01  .151300000000D+04  .000000000000D+00
     .340000000000D+01  .000000000000D+00 -.419095158577D-08  .740000000000D+02
     .496806000000D+06  .400000000000D+01
 5 09  1  9 20  0  0.0 -.518421176821D-03 -.618456397206D-10  .000000000000D+00
     .320000000000D+02 -.103718750000D+03  .436375319641D-08  .201676253499D+01
    -.544637441635D-05  .938009948004D-02  .110175460577D-04  .515364929199D+04
     .504000000000D+06  .109896063805D-06 -.804494932157D-01 -.223517417908D-06
     .945217797167D+00  .158781250000D+03  .129516457847D+01 -.775318009393D-08
     .409659921123D-09  .100000000000D+01  .151300000000D+04  .000000000000D+00
     .340000000000D+01  .000000000000D+00 -.419095158577D-08  .320000000000D+02
     .496806000000D+06  .400000000000D+01
 6 09  1  9 20  0  0.0  .974801369011D-04 -.118234311230D-10  .000000000000D+00
     .650000000000D+02  .120312500000D+02  .558094675455D-08  .177627209483D+01
     .473111867905D-06  .563655002043D-02  .614486634731D-05  .515370038414D+04
     .504000000000D+06  .689178705215D-07  .101683150949D+01 -.104308128357D-06
     .933408426082D+00  .245750000000D+03 -.148476938964D+01 -.832320383771D-08
     .463590738987D-09  .100000000000D+01  .151300000000D+04  .000000000000D+00
     .340000000000D+01  .000000000000D+00 -.465661287308D-08  .650000000000D+02
     .496806000000D+06  .400000000000D+01
 7 09  1  9 20  0  0.0  .233990140259D-04 -.113686837722D-12  .000000000000D+00
     .510000000000D+02 -.166562500000D+03  .440732643998D-08 -.222546936826D+01
    -.857003033161D-05  .229772052262D-02  .279024243355D-05  .515368590164D+04
     .504000000000D+06 -.149011611938D-07 -.103284369207D+01  .353902578354D-07
     .965442674723D+00  .330531250000D+03  .291331751210D+01 -.825355807954D-08
    -.235366946835D-09  .100000000000D+01  .151300000000D+04  .000000000000D+00
     .240000000000D+01  .000000000000D+00 -.107102096081D-07  .510000000000D+02
     .496806000000D+06  .400000000000D+01
 8 09  1  9 20  0  0.0 -.185665208846D-03 -.159161572810D-11  .000000000000D+00
     .330000000000D+02 -.171718750000D+03  .383301680339D-08 -.289641432463D+01
    -.877119600773D-05  .105049217818D-01  .327825546265D-05  .515369946098D+04
     .504000000000D+06 -.109896063805D-06 -.975321388931D+00  .856816768646D-07
     .986653651228D+00  .331906250000D+03  .296957944402D+01 -.785854162552D-08
    -.286083345091D-09  .100000000000D+01  .151300000000D+04  .000000000000D+00
     .340000000000D+01  .000000000000D+00 -.419095158577D-08  .330000000000D+02
     .496806000000D+06  .400000000000D+01
 9 09  1  9 20  0  0.0  .341464765370D-04  .193267624127D-11  .000000000000D+00
     .112000000000D+03 -.147625000000D+03  .410159941951D-08  .311971936872D+01
    -.755861401558D-05  .201403874671D-01  .196509063244D-05  .515365963745D+04
     .504000000000D+06  .268220901489D-06 -.106787818966D+01 -.949949026108D-07
     .974387280627D+00  .348406250000D+03  .145548956559D+01 -.778996734055D-08
    -.231795369493D-09  .100000000000D+01  .151300000000D+04  .000000000000D+00
     .485000000000D+01  .000000000000D+00 -.558793544769D-08  .112000000000D+03
     .496806000000D+06  .400000000000D+01
10 09  1  9 20  0  0.0 -.926246866584D-05 -.568434188608D-12  .000000000000D+00
     .530000000000D+02  .130406250000D+03  .420338937375D-08  .476117006859D+00
     .706873834133D-05  .842754950281D-02  .106040388346D-04  .515377255249D+04
     .504000000000D+06 -.167638063431D-07 -.310293416267D+01  .176951289177D-06
     .960731813719D+00  .172343750000D+03  .577943669925D+00 -.784032658107D-08
    -.269654089318D-09  .100000000000D+01  .151300000000D+04  .000000000000D+00
     .240000000000D+01  .000000000000D+00 -.279396772385D-08  .530000000000D+02
     .496806000000D+06  .400000000000D+01
11 09  1  9 20  0  0.0  .110012479126D-04 -.102318153949D-11  .000000000000D+00
     .710000000000D+02 -.196562500000D+02  .658348851444D-08 -.237259527209D+01
    -.119395554066D-05  .912371894810D-02  .608898699284D-05  .515365401268D+04
     .504000000000D+06  .143423676491D-06  .190376382987D+01 -.143423676491D-06
     .889542002389D+00  .222625000000D+03  .674915178526D+00 -.879608067778D-08
    -.441446959466D-09  .100000000000D+01  .151300000000D+04  .000000000000D+00
     .340000000000D+01  .000000000000D+00 -.121071934700D-07  .710000000000D+02
     .496806000000D+06  .400000000000D+01
12 09  1  9 20  0  0.0 -.326958484948D-03  .318323145621D-11  .000000000000D+00
     .750000000000D+02 -.841875000000D+02  .397909431668D-08 -.202216769837D+01
    -.429525971413D-05  .310504541267D-02  .114813446999D-04  .515375016403D+04
     .504000000000D+06 -.186264514923D-07  .181025667074D-01  .298023223877D-07
     .966205726941D+00  .161781250000D+03 -.824272532751D+00 -.760245953010D-08
     .479662837025D-09  .100000000000D+01  .151300000000D+04  .000000000000D+00
     .240000000000D+01  .000000000000D+00 -.116415321827D-07  .750000000000D+02
     .496806000000D+06  .400000000000D+01
13 09  1  9 20  0  0.0  .284358393401D-03  .136424205266D-11  .000000000000D+00
     .130000000000D+02  .932812500000D+02  .393730686178D-08  .279083913148D+00
     .470876693726D-05  .365625729319D-02 -.191852450371D-06  .515376830292D+04
     .504000000000D+06 -.111758708954D-06 -.202714416971D+01 -.428408384323D-07
     .995186283309D+00  .400843750000D+03  .150961256499D+01 -.823105714228D-08
     .169649923743D-09  .100000000000D+01  .151300000000D+04  .000000000000D+00
     .240000000000D+01  .000000000000D+00 -.111758708954D-07  .130000000000D+02
     .496806000000D+06  .400000000000D+01
14 09  1  9 20  0  0.0 -.170494429767D-03  .511590769747D-11  .000000000000D+00
     .880000000000D+02  .782500000000D+02  .411945730622D-08 -.155318397223D+00
     .413134694099D-05  .446121033747D-02  .271946191788D-06  .515356040382D+04
     .504000000000D+06  .447034835815D-07 -.204579569935D+01  .689178705215D-07
     .988797847331D+00  .390781250000D+03 -.210000117515D+01 -.825248660633D-08
     .154292141173D-09  .100000000000D+01  .151300000000D+04  .000000000000D+00
     .240000000000D+01  .000000000000D+00 -.931322574615D-08  .880000000000D+02
     .496806000000D+06  .400000000000D+01
